TEVEL2-6                
1 63215U 25052F   26068.64958975  .00021046  00000+0  70909-3 0  9996
2 63215  97.4016 325.0381 0004769  95.6604 264.5181 15.30760889 54861
STARLINK-35706          
1 67051U 25294X   26068.78436663  .00022879  00000+0  83859-3 0  9999
2 67051  43.0009  37.5365 0000941 279.7056  80.3690 15.27570629 14810
